SARSAT 7 (NOAA 15)      
1 25338U 98030A   15041.21587811  .00000202  00000-0  10430-3 0  9990
2 25338  98.7681  39.8054 0011004 171.9332 316.8821 14.25563248870759
GPS BIIR-07             
1 26690U 01004A   15041.09806833  .00000057  00000-0  00000+0 0  9997
2 26690  53.0160 193.6809 0159335 246.1318 148.9410  2.00552580102802
METEOSAT-8 (MSG-1)      
1 27509U 02040B   15041.07391811  .00000020  00000-0  00000+0 0  9991
2 27509   3.3041  61.5426 0002811 182.1510 286.4893  1.00277190 45680
GPS BIIR-08             
1 27663U 03005A   15041.10647171 -.00000044  00000-0  00000+0 0  9998
2 27663  56.7154  18.2712 0080381  12.0764 124.5875  2.00555061 88164
INSAT 3A                
1 27714U 03013A   15041.58405175 -.00000260  00000-0  00000+0 0  9992
2 27714   0.0512 264.4344 0002229 132.9866  46.6538  1.00272825 43396
GPS BIIR-11             
1 28190U 04009A   15041.11395495 -.00000018  00000-0  00000+0 0  9990
2 28190  55.4861  80.0393 0108385  28.3393  30.3529  2.00560927 79848
GPS BIIR-12             
1 28361U 04023A   15041.20606410  .00000043  00000-0  00000+0 0  9995
2 28361  54.3958 254.9927 0098556 205.5866  68.9961  2.00564564 77925
GPS BIIR-13             
1 28474U 04045A   15040.44186784 -.00000005  00000-0  00000+0 0  9995
2 28474  53.8809 133.0211 0145327 227.5277 217.8469  2.00551915 75271
SARSAT 10 (NOAA 18)     
1 28654U 05018A   15041.19246919  .00000187  00000-0  12737-3 0  9990
2 28654  99.1753  30.8026 0013537 319.2642 169.9187 14.12147531501158
GPS BIIR-14M            
1 28874U 05038A   15040.89102569 -.00000019  00000-0  00000+0 0  9995
2 28874  55.6536  77.1856 0102769 243.8676 273.7444  2.00558501 68681
MSG-2                   
1 28912U 05049B   15040.15775887  .00000062  00000-0  00000+0 0  9995
2 28912   0.6035  47.5124 0000587 260.9165 256.7976  1.00280197 33523
GOES 13                 
1 29155U 06018A   15041.42623539 -.00000250  00000-0  00000+0 0  9999
2 29155   0.3078  92.2297 0001808 296.7391 189.3721  1.00262272 31958
SARSAT 11 (METOP-A)     
1 29499U 06044A   15040.57149199  .00000111  00000-0  70743-4 0  9990
2 29499  98.6926 101.9878 0001759 139.0468 358.7364 14.21482962431151
GPS BIIR-16M            
1 29601U 06052A   15040.96188527 -.00000045  00000-0  00000+0 0  9996
2 29601  56.6834  17.2085 0051919  27.0437 142.9770  2.00556894 60312
GPS BIIR-17M            
1 32260U 07047A   15040.55029072  .00000039  00000-0  00000+0 0  9992
2 32260  53.5290 252.1209 0070135  19.5129 343.1062  2.00572173 53692
GPS BIIR-18M            
1 32384U 07062A   15038.59224289 -.00000023  00000-0  00000+0 0  9998
2 32384  55.6986  77.8084 0014919 304.9559 223.3932  2.00577515 52388
SARSAT 12 (NOAA 19)     
1 33591U 09005A   15041.19774556  .00000321  00000-0  20045-3 0  9990
2 33591  98.9756 350.8787 0014428 164.3800 307.9984 14.11870553309575
GOES 14                 
1 35491U 09033A   15041.37513818 -.00000096  00000-0  00000+0 0  9999
2 35491   0.0314 247.6083 0001955 358.8958 284.3020  1.00272044 20605
GOES 15                 
1 36411U 10008A   15041.46489904  .00000087  00000-0  00000+0 0  9993
2 36411   0.0908 249.9841 0002680  95.3250 187.0031  1.00266840 18120
ELEKTRO-L 1             
1 37344U 11001A   15040.75287869 -.00000098  00000-0  00000+0 0  9993
2 37344   0.7151  81.0110 0001497 175.0127 230.3837  1.00269845 14907
GLONASS-K 1             
1 37372U 11009A   15041.43263483  .00000003  00000-0  00000+0 0  9999
2 37372  65.0216  93.7030 0009051 235.4603  77.3271  2.13103039 30769
GPS BIIF-2              
1 37753U 11036A   15041.11448866 -.00000004  00000-0  00000+0 0  9999
2 37753  55.1071 135.0124 0037814  19.9091 313.3801  2.00563704 26132
LUCH 5A                 
1 37951U 11074B   15041.38300116 -.00000048  00000-0  00000+0 0  9993
2 37951   2.4749 241.2884 0002575  66.8790 136.8459  1.00270554 11627
MSG-3                   
1 38552U 12035B   15040.20573866 -.00000005  00000-0  00000+0 0  9996
2 38552   0.5855 141.4389 0001077 174.0518 257.5096  1.00279234  9640
SARSAT 13 (METOP-B)     
1 38771U 12049A   15040.81467788  .00000108  00000-0  69182-4 0  9990
2 38771  98.7147 102.5018 0001550 161.5477 309.9369 14.21494894124320
GPS BIIF-3              
1 38833U 12053A   15040.64153233 -.00000054  00000-0  00000+0 0  9992
2 38833  54.6924 313.8581 0030074  12.1531 347.9662  2.00562019 17205
GSAT0103 (GALILEO-FM3)  
1 38857U 12055A   15036.97778646  .00000047  00000-0  00000+0 0  9993
2 38857  55.0237 215.9665 0001958 179.1474 180.8310  1.70473605 14431
GSAT0104 (GALILEO-FM4)  
1 38858U 12055B   15039.25881135  .00000057  00000-0  00000+0 0  9997
2 38858  55.0240 215.9012 0001602 151.2641 208.7213  1.70473599 14417
GPS BIIF-4              
1 39166U 13023A   15040.99247998 -.00000020  00000-0  10000-3 0  9998
2 39166  55.3586  74.4825 0018724   1.2086 358.8596  2.00562300 12733
INSAT-3D                
1 39216U 13038B   15040.56290648 -.00000159  00000-0  00000+0 0  9991
2 39216   0.1063 259.9888 0001143  52.8175 111.2705  1.00272814  5736
GPS BIIF-5              
1 39533U 14008A   15039.99062830 -.00000059  00000-0  00000+0 0  9995
2 39533  54.8340 319.0341 0009797 181.3639 178.6747  2.00552017  7080
LUCH 5V                 
1 39727U 14023A   15041.58565578 -.00000271  00000-0  00000+0 0  9998
2 39727   4.2890 301.5489 0003130  27.3720 117.3061  1.00270762520967
GPS BIIF-6              
1 39741U 14026A   15041.27095785 -.00000005  00000-0  00000+0 0  9996
2 39741  55.1029 134.5171 0003209 177.8186 182.2089  2.00562078  5399
GPS BIIF-7              
1 40105U 14045A   15040.36504614  .00000038  00000-0  00000+0 0  9993
2 40105  54.9077 254.4783 0001813 179.7917 180.2586  2.00564337  3824
GSAT0201                
1 40128U 14050A   15040.41987231 -.00000044  00000-0  00000+0 0  9998
2 40128  49.7375  79.7029 1560851  32.0280 336.6770  1.85520543  3342
GSAT0202                
1 40129U 14050B   15032.89548049 -.00000056  00000-0  00000+0 0  9995
2 40129  49.7742  78.9756 2307232  32.7829 339.7363  2.04222054  3348
GPS BIIF-8              
1 40294U 14068A   15040.73658395  .00000061  00000-0  00000+0 0  9990
2 40294  54.9727 194.6396 0010631 202.3024 157.6253  2.00553194  2052
GLONASS-K 2             
1 40315U 14075A   15039.58938881 -.00000048  00000-0  00000+0 0  9990
2 40315  64.8090 335.3310 0017219 245.1288 217.9111  2.13101792  1492
